{
  "norad_id": 45187,
  "name": "STARLINK-1225",
  "history": [
    {
      "epoch": "2026-03-28T21:05:01.536864Z",
      "apogee_km": 476.2531512160058,
      "perigee_km": 474.2516873699951,
      "latitude_deg": 7.2114268074045205e-06,
      "longitude_deg": 167.99178658933698,
      "height_km": 476.1098588271813,
      "semi_major_axis_km": 6853.389419293,
      "eccentricity": 0.00014602,
      "inclination_deg": 53.1613,
      "raan_deg": 310.5408,
      "arg_perigee_deg": 87.6801,
      "mean_anomaly_deg": 272.4367,
      "mean_motion_rev_day": 15.30187491
    },
    {
      "epoch": "2026-03-29T00:13:08.112288Z",
      "apogee_km": 476.2514345579784,
      "perigee_km": 474.2639500972027,
      "latitude_deg": 6.933835827402326e-05,
      "longitude_deg": 120.22837878970475,
      "height_km": 476.33796489732794,
      "semi_major_axis_km": 6853.39469232759,
      "eccentricity": 0.000145,
      "inclination_deg": 53.1626,
      "raan_deg": 309.9335,
      "arg_perigee_deg": 100.562,
      "mean_anomaly_deg": 259.5545,
      "mean_motion_rev_day": 15.30185725
    },
    {
      "epoch": "2026-03-29T23:43:52.861728Z",
      "apogee_km": 476.23688211357876,
      "perigee_km": 474.0397220517325,
      "latitude_deg": -5.4156742593116604e-05,
      "longitude_deg": 122.0237100805912,
      "height_km": 476.1380784942944,
      "semi_major_axis_km": 6853.275302082656,
      "eccentricity": 0.0001603,
      "inclination_deg": 53.1613,
      "raan_deg": 305.381,
      "arg_perigee_deg": 95.3274,
      "mean_anomaly_deg": 264.7909,
      "mean_motion_rev_day": 15.30225711
    },
    {
      "epoch": "2026-03-29T23:43:52.862592Z",
      "apogee_km": 476.2370877118383,
      "perigee_km": 474.03951645347297,
      "latitude_deg": -5.6913428303518135e-05,
      "longitude_deg": 122.02370441698378,
      "height_km": 476.13809758340204,
      "semi_major_axis_km": 6853.275302082656,
      "eccentricity": 0.00016033,
      "inclination_deg": 53.1613,
      "raan_deg": 305.381,
      "arg_perigee_deg": 95.3274,
      "mean_anomaly_deg": 264.7909,
      "mean_motion_rev_day": 15.30225711
    },
    {
      "epoch": "2026-03-30T21:40:39.327744Z",
      "apogee_km": 476.2669336090248,
      "perigee_km": 474.1820039829872,
      "latitude_deg": 1.0391243189476299e-05,
      "longitude_deg": 147.6840507454497,
      "height_km": 475.6728786119208,
      "semi_major_axis_km": 6853.361468796006,
      "eccentricity": 0.00015211,
      "inclination_deg": 53.1609,
      "raan_deg": 301.1362,
      "arg_perigee_deg": 64.4492,
      "mean_anomaly_deg": 295.6666,
      "mean_motion_rev_day": 15.30196852
    },
    {
      "epoch": "2026-03-31T21:11:27.693888Z",
      "apogee_km": 476.11015751336436,
      "perigee_km": 474.321432433876,
      "latitude_deg": -1.7445167868140775e-05,
      "longitude_deg": 149.4630432942122,
      "height_km": 476.4216798452387,
      "semi_major_axis_km": 6853.35279497362,
      "eccentricity": 0.0001305,
      "inclination_deg": 53.1603,
      "raan_deg": 296.5824,
      "arg_perigee_deg": 110.1248,
      "mean_anomaly_deg": 249.9893,
      "mean_motion_rev_day": 15.30199757
    }
  ]
}